{"type": "FeatureCollection", "features": [ {"type": "Feature", "properties": {"norad_id": 66594, "name": "STARLINK-36032", "group": "last-30-days", "lat": 42.75022841548884, "lon": -122.682542888641, "alt_km": 438.1127566909554, "timestamp": "2025-12-21T18:54:57.221579+00:00", "meta": {"OBJECT_NAME": "STARLINK-36032", "OBJECT_ID": "2025-270G", "EPOCH": "2025-12-21T14:00:01.999872", "MEAN_MOTION": 15.40711006, "ECCENTRICITY": 0.00013729, "INCLINATION": 42.9997, "RA_OF_ASC_NODE": 141.2499, "ARG_OF_PERICENTER": 257.937, "MEAN_ANOMALY": 140.057, "EPHEMERIS_TYPE": 0, "CLASSIFICATION_TYPE": "U", "NORAD_CAT_ID": 66594, "ELEMENT_SET_NO": 999, "REV_AT_EPOCH": 555, "BSTAR": 0.00019915302, "MEAN_MOTION_DOT": 8.027e-05, "MEAN_MOTION_DDOT": 0}, "tle": {"line1": "1 66594U 25270G   25355.58335648  .00008027  00000+0  19915-3 0  9992", "line2": "2 66594  42.9997 141.2499 0001372 257.9370 140.0570 15.40711006  5555"}}, "geometry": {"type": "Point", "coordinates": [-122.682542888641, 42.75022841548884]}}, {"type": "Feature", "properties": {"norad_id": 66595, "name": "STARLINK-35711", "group": "last-30-days", "lat": -18.717800405519235, "lon": -18.887975894810705, "alt_km": 419.18724980031675, "timestamp": "2025-12-21T18:54:57.221590+00:00", "meta": {"OBJECT_NAME": "STARLINK-35711", "OBJECT_ID": "2025-270H", "EPOCH": "2025-12-20T03:22:00.602400", "MEAN_MOTION": 15.5018184, "ECCENTRICITY": 0.00034215, "INCLINATION": 42.999, "RA_OF_ASC_NODE": 149.4265, "ARG_OF_PERICENTER": 341.0071, "MEAN_ANOMALY": 19.0661, "EPHEMERIS_TYPE": 0, "CLASSIFICATION_TYPE": "U", "NORAD_CAT_ID": 66595, "ELEMENT_SET_NO": 999, "REV_AT_EPOCH": 560, "BSTAR": 0.0012292638, "MEAN_MOTION_DOT": 0.00071426, "MEAN_MOTION_DDOT": 0}, "tle": {"line1": "1 66595U 25270H   25354.14028475  .00071426  00000+0  12293-2 0  9995", "line2": "2 66595  42.9990 149.4265 0003421 341.0071  19.0661 15.50181840  5600"}}, "geometry": {"type": "Point", "coordinates": [-18.887975894810705, -18.717800405519235]}}, {"type": "Feature", "properties": {"norad_id": 66596, "name": "STARLINK-35811", "group": "last-30-days", "lat": -37.780798413347846, "lon": 16.878899344665257, "alt_km": 446.9493758913259, "timestamp": "2025-12-21T18:54:57.221601+00:00", "meta": {"OBJECT_NAME": "STARLINK-35811", "OBJECT_ID": "2025-270J", "EPOCH": "2025-12-21T11:38:18.879936", "MEAN_MOTION": 15.40728481, "ECCENTRICITY": 1.389e-05, "INCLINATION": 42.9957, "RA_OF_ASC_NODE": 142.3269, "ARG_OF_PERICENTER": 254.846, "MEAN_ANOMALY": 105.2382, "EPHEMERIS_TYPE": 0, "CLASSIFICATION_TYPE": "U", "NORAD_CAT_ID": 66596, "ELEMENT_SET_NO": 999, "REV_AT_EPOCH": 580, "BSTAR": 0.00083180508, "MEAN_MOTION_DOT": 0.00034634, "MEAN_MOTION_DDOT": 0}, "tle": {"line1": "1 66596U 25270J   25355.48494074  .00034634  00000+0  83181-3 0  9991", "line2": "2 66596  42.9957 142.3269 0000138 254.8460 105.2382 15.40728481  5802"}}, "geometry": {"type": "Point", "coordinates": [16.878899344665257, -37.780798413347846]}}, {"type": "Feature", "properties": {"norad_id": 66597, "name": "STARLINK-35820", "group": "last-30-days", "lat": -38.50613591616485, "lon": 81.82377678614294, "alt_km": 445.2161292780129, "timestamp": "2025-12-21T18:54:57.221611+00:00", "meta": {"OBJECT_NAME": "STARLINK-35820", "OBJECT_ID": "2025-270K", "EPOCH": "2025-12-20T12:05:06.576576", "MEAN_MOTION": 15.40728378, "ECCENTRICITY": 0.00023281, "INCLINATION": 42.9989, "RA_OF_ASC_NODE": 147.8597, "ARG_OF_PERICENTER": 279.6537, "MEAN_ANOMALY": 80.4056, "EPHEMERIS_TYPE": 0, "CLASSIFICATION_TYPE": "U", "NORAD_CAT_ID": 66597, "ELEMENT_SET_NO": 999, "REV_AT_EPOCH": 565, "BSTAR": 0.0011149945, "MEAN_MOTION_DOT": 0.00046603, "MEAN_MOTION_DDOT": 0}, "tle": {"line1": "1 66597U 25270K   25354.50354834  .00046603  00000+0  11150-2 0  9998", "line2": "2 66597  42.9989 147.8597 0002328 279.6537  80.4056 15.40728378  5655"}}, "geometry": {"type": "Point", "coordinates": [81.82377678614294, -38.50613591616485]}}, {"type": "Feature", "properties": {"norad_id": 66598, "name": "STARLINK-35981", "group": "last-30-days", "lat": 13.853954414016048, "lon": 155.59347335838063, "alt_km": 442.3465828666094, "timestamp": "2025-12-21T18:54:57.221624+00:00", "meta": {"OBJECT_NAME": "STARLINK-35981", "OBJECT_ID": "2025-270L", "EPOCH": "2025-12-21T00:00:02.000160", "MEAN_MOTION": 15.40651292, "ECCENTRICITY": 0.00021845, "INCLINATION": 43.0001, "RA_OF_ASC_NODE": 144.7895, "ARG_OF_PERICENTER": 267.1368, "MEAN_ANOMALY": 56.9438, "EPHEMERIS_TYPE": 0, "CLASSIFICATION_TYPE": "U", "NORAD_CAT_ID": 66598, "ELEMENT_SET_NO": 999, "REV_AT_EPOCH": 556, "BSTAR": 0.00054220677, "MEAN_MOTION_DOT": 0.00022376, "MEAN_MOTION_DDOT": 0}, "tle": {"line1": "1 66598U 25270L   25355.00002315  .00022376  00000+0  54221-3 0  9997", "line2": "2 66598  43.0001 144.7895 0002184 267.1368  56.9438 15.40651292  5566"}}, "geometry": {"type": "Point", "coordinates": [155.59347335838063, 13.853954414016048]}}, {"type": "Feature", "properties": {"norad_id": 66599, "name": "STARLINK-35930", "group": "last-30-days", "lat": -23.29854511744702, "lon": -12.70405874093968, "alt_km": 419.1020870721841, "timestamp": "2025-12-21T18:54:57.221634+00:00", "meta": {"OBJECT_NAME": "STARLINK-35930", "OBJECT_ID": "2025-270M", "EPOCH": "2025-12-19T04:08:36.625632", "MEAN_MOTION": 15.50348464, "ECCENTRICITY": 0.0002903, "INCLINATION": 42.9985, "RA_OF_ASC_NODE": 155.067, "ARG_OF_PERICENTER": 324.189, "MEAN_ANOMALY": 35.8775, "EPHEMERIS_TYPE": 0, "CLASSIFICATION_TYPE": "U", "NORAD_CAT_ID": 66599, "ELEMENT_SET_NO": 999, "REV_AT_EPOCH": 534, "BSTAR": -2.964998e-06, "MEAN_MOTION_DOT": -5.14e-06, "MEAN_MOTION_DDOT": 0}, "tle": {"line1": "1 66599U 25270M   25353.17264613 -.00000514  00000+0 -29650-5 0  9997", "line2": "2 66599  42.9985 155.0670 0002903 324.1890  35.8775 15.50348464  5346"}}, "geometry": {"type": "Point", "coordinates": [-12.70405874093968, -23.29854511744702]}}, {"type": "Feature", "properties": {"norad_id": 66600, "name": "STARLINK-35980", "group": "last-30-days", "lat": 39.98270903943221, "lon": -155.72562454548515, "alt_km": 438.87840986549327, "timestamp": "2025-12-21T18:54:57.221644+00:00", "meta": {"OBJECT_NAME": "STARLINK-35980", "OBJECT_ID": "2025-270N", "EPOCH": "2025-12-21T14:00:01.999872", "MEAN_MOTION": 15.40687217, "ECCENTRICITY": 0.00018329, "INCLINATION": 43.0001, "RA_OF_ASC_NODE": 141.3089, "ARG_OF_PERICENTER": 270.0205, "MEAN_ANOMALY": 103.1773, "EPHEMERIS_TYPE": 0, "CLASSIFICATION_TYPE": "U", "NORAD_CAT_ID": 66600, "ELEMENT_SET_NO": 999, "REV_AT_EPOCH": 572, "BSTAR": 0.00016376808, "MEAN_MOTION_DOT": 6.54e-05, "MEAN_MOTION_DDOT": 0}, "tle": {"line1": "1 66600U 25270N   25355.58335648  .00006540  00000+0  16377-3 0  9997", "line2": "2 66600  43.0001 141.3089 0001832 270.0205 103.1773 15.40687217  5721"}}, "geometry": {"type": "Point", "coordinates": [-155.72562454548515, 39.98270903943221]}}, {"type": "Feature", "properties": {"norad_id": 66601, "name": "STARLINK-35978", "group": "last-30-days", "lat": -19.2048298166981, "lon": 118.41632218484087, "alt_km": 445.0215805975422, "timestamp": "2025-12-21T18:54:57.221654+00:00", "meta": {"OBJECT_NAME": "STARLINK-35978", "OBJECT_ID": "2025-270P", "EPOCH": "2025-12-20T19:42:11.790720", "MEAN_MOTION": 15.40722377, "ECCENTRICITY": 0.00014939, "INCLINATION": 43.0002, "RA_OF_ASC_NODE": 145.942, "ARG_OF_PERICENTER": 271.2844, "MEAN_ANOMALY": 88.7841, "EPHEMERIS_TYPE": 0, "CLASSIFICATION_TYPE": "U", "NORAD_CAT_ID": 66601, "ELEMENT_SET_NO": 999, "REV_AT_EPOCH": 543, "BSTAR": 0.00099615846, "MEAN_MOTION_DOT": 0.00041566, "MEAN_MOTION_DDOT": 0}, "tle": {"line1": "1 66601U 25270P   25354.82096980  .00041566  00000+0  99616-3 0  9991", "line2": "2 66601  43.0002 145.9420 0001493 271.2844  88.7841 15.40722377  5436"}}, "geometry": {"type": "Point", "coordinates": [118.41632218484087, -19.2048298166981]}}, {"type": "Feature", "properties": {"norad_id": 66602, "name": "STARLINK-36050", "group": "last-30-days", "lat": -41.55563955364768, "lon": 32.584166739407124, "alt_km": 445.9016172645297, "timestamp": "2025-12-21T18:54:57.221664+00:00", "meta": {"OBJECT_NAME": "STARLINK-36050", "OBJECT_ID": "2025-270Q", "EPOCH": "2025-12-20T18:28:11.884800", "MEAN_MOTION": 15.40736584, "ECCENTRICITY": 0.00018604, "INCLINATION": 43.0006, "RA_OF_ASC_NODE": 146.4173, "ARG_OF_PERICENTER": 279.8922, "MEAN_ANOMALY": 80.1725, "EPHEMERIS_TYPE": 0, "CLASSIFICATION_TYPE": "U", "NORAD_CAT_ID": 66602, "ELEMENT_SET_NO": 999, "REV_AT_EPOCH": 548, "BSTAR": 0.0010134655, "MEAN_MOTION_DOT": 0.00042319, "MEAN_MOTION_DDOT": 0}, "tle": {"line1": "1 66602U 25270Q   25354.76958200  .00042319  00000+0  10135-2 0  9992", "line2": "2 66602  43.0006 146.4173 0001860 279.8922  80.1725 15.40736584  5488"}}, "geometry": {"type": "Point", "coordinates": [32.584166739407124, -41.55563955364768]}}, {"type": "Feature", "properties": {"norad_id": 66603, "name": "STARLINK-36048", "group": "last-30-days", "lat": 5.640320800385678, "lon": 146.35969414564414, "alt_km": 442.583803054119, "timestamp": "2025-12-21T18:54:57.221674+00:00", "meta": {"OBJECT_NAME": "STARLINK-36048", "OBJECT_ID": "2025-270R", "EPOCH": "2025-12-21T11:06:03.294432", "MEAN_MOTION": 15.40734515, "ECCENTRICITY": 4.182e-05, "INCLINATION": 42.9996, "RA_OF_ASC_NODE": 142.1528, "ARG_OF_PERICENTER": 348.8415, "MEAN_ANOMALY": 11.2432, "EPHEMERIS_TYPE": 0, "CLASSIFICATION_TYPE": "U", "NORAD_CAT_ID": 66603, "ELEMENT_SET_NO": 999, "REV_AT_EPOCH": 559, "BSTAR": 0.0011851871, "MEAN_MOTION_DOT": 0.00049583, "MEAN_MOTION_DDOT": 0}, "tle": {"line1": "1 66603U 25270R   25355.46253813  .00049583  00000+0  11852-2 0  9996", "line2": "2 66603  42.9996 142.1528 0000418 348.8415  11.2432 15.40734515  5598"}}, "geometry": {"type": "Point", "coordinates": [146.35969414564414, 5.640320800385678]}}]}